ID	Name	Strasse	PLZ	Ort	Adresse
0	Landi La Côte SA	Chemin d'Etraz 1	1027	Lonay	"Chemin d'Etraz 1, Lonay, Switzerland"
1	LANDI Moudon-Bercher-Mézières	Place de la Gare 10	1038	Bercher	"Place de la Gare 10, Bercher, Switzerland"
2	LANDI Assens	Rte. d’Yverdon 4	1042	Assens	"Rte. d’Yverdon 4, Assens, Switzerland"
3	LANDI Puidoux	Route du Verney 2	1070	Puidoux-Gare	"Route du Verney 2, Puidoux-Gare, Switzerland"
4	Landi Moudon-Bercher-Mézières	Route du Village 70	1083	Mézières VD	"Route du Village 70, Mézières VD, Switzerland"
5	Landi La Côte SA	Ch. du Curbit 1	1136	Bussy-Chardonney	"Ch. du Curbit 1, Bussy-Chardonney, Switzerland"
6	Landi La Côte SA	Av. de la Gare 1	1166	Perroy	"Av. de la Gare 1, Perroy, Switzerland"
7	CERCLE DES AGRICULTEURS	Chemin des Cornaches 1	1233	Bernex	"Chemin des Cornaches 1, Bernex, Switzerland"
8	CERCLE DES AGRICULTEURS	Rue des Sablières 15	1242	Satigny	"Rue des Sablières 15, Satigny, Switzerland"
9	CERCLE DES AGRICULTEURS	Route de Compois 14	1252	Meinier	"Route de Compois 14, Meinier, Switzerland"
10	Cercle des Agriculteurs Veyrier	Chemin des Marais 52	1255	Veyrier	"Chemin des Marais 52, Veyrier, Switzerland"
11	LANDI La Côte SA	Route de Crassier 27	1262	Eysins	"Route de Crassier 27, Eysins, Switzerland"
12	LANDI Nord vaudois-Venoge SA	Route de Dizy 1	1304	Cossonay-Ville	"Route de Dizy 1, Cossonay-Ville, Switzerland"
13	LANDI Nord vaudois-Venoge SA	Chemin de Longeraie 1 / Case postale 120	1350	Orbe	"Chemin de Longeraie 1 / Case postale 120, Orbe, Switzerland"
14	LANDI Nord vaudois-Venoge SA	Avenue des Sports 48	1400	Yverdon-les-Bains	"Avenue des Sports 48, Yverdon-les-Bains, Switzerland"
15	LANDI Centre Broye	Pl. de la Gare 7	1470	Estavayer-le-Lac	"Pl. de la Gare 7, Estavayer-le-Lac, Switzerland"
16	LANDI Moudon-Bercher-Mézières	Rte de Bronjon 2; cp 257	1510	Moudon	"Rte de Bronjon 2; cp 257, Moudon, Switzerland"
17	LANDI Granges - Combremont	Rue du Canard 12	1523	Granges-Marnand	"Rue du Canard 12, Granges-Marnand, Switzerland"
18	LANDI Centre Broye	Charrière d'Estavayer 21	1530	Payerne	"Charrière d'Estavayer 21, Payerne, Switzerland"
19	LANDI Broye-Vully SA	Au Milavy	1580	Avenches	"Au Milavy, Avenches, Switzerland"
20	Société coopérative agricole de la région d'Oron	Route de Lausanne 39	1610	Oron-la-Ville	"Route de Lausanne 39, Oron-la-Ville, Switzerland"
21	LANDI Moléson SA	Rue de Montreux 140	1618	Châtel-St-Denis	"Rue de Montreux 140, Châtel-St-Denis, Switzerland"
22	LANDI Moléson SA	Route de Riaz 87	1630	Bulle	"Route de Riaz 87, Bulle, Switzerland"
23	LANDI Moléson SA	Rte de Saanen 2	1660	Château-d'Oex	"Rte de Saanen 2, Château-d'Oex, Switzerland"
24	LANDI Vauderens	Rte d'Ursy 10	1675	Vauderens	"Rte d'Ursy 10, Vauderens, Switzerland"
25	LANDI de Romont Société coopérative	Route de Billens 18	1680	Romont	"Route de Billens 18, Romont, Switzerland"
26	LANDI Sense-Düdingen	Dorfschaftsstrasse 2	1712	Tafers	"Dorfschaftsstrasse 2, Tafers, Switzerland"
27	LANDI Sense-Düdingen	Hauptstrasse 47	1714	Heitenried	"Hauptstrasse 47, Heitenried, Switzerland"
28	LANDI Sense-Oberland	Obere Matte 20	1716	Plaffeien	"Obere Matte 20, Plaffeien, Switzerland"
29	LANDI Sarine SA	Route de Chésalles 3	1723	Marly	"Route de Chésalles 3, Marly, Switzerland"
30	LANDI Sarine SA	Route du Barrage 11	1733	Treyvaux	"Route du Barrage 11, Treyvaux, Switzerland"
31	LANDI Sense-Oberland	Oberlandstrasse 1	1734	Tentlingen	"Oberlandstrasse 1, Tentlingen, Switzerland"
32	LANDI Chénens Société Coopérative	Rue de la Gare 81	1744	Chénens	"Rue de la Gare 81, Chénens, Switzerland"
33	LANDI Sarine SA	Route du P.A.A. 25	1772	Grolley	"Route du P.A.A. 25, Grolley, Switzerland"
34	LANDI Moulin Courtepin Société coopérative	Route de Morat 15B	1784	Courtepin	"Route de Morat 15B, Courtepin, Switzerland"
35	LANDI Aigle	Ch. de la Biole 2	1860	Aigle	"Ch. de la Biole 2, Aigle, Switzerland"
36	LANDI Saxon	Route du Léman 12	1907	Saxon	"Route du Léman 12, Saxon, Switzerland"
37	Société coopérative d'agriculture	Route de la Gare 8	1926	Fully	"Route de la Gare 8, Fully, Switzerland"
38	LANDI Région Neuchâtel SA	Chemin des Maladières 14	2022	Bevaix	"Chemin des Maladières 14, Bevaix, Switzerland"
39	LANDI Val-de-Ruz Société coopérative	Passage des Cèpes 1	2053	Cernier	"Passage des Cèpes 1, Cernier, Switzerland"
40	LANDI Région Neuchâtel SA	Rue du Moulin 10	2087	Cornaux	"Rue du Moulin 10, Cornaux, Switzerland"
41	LANDI Région Neuchâtel SA	Rue de la Gare 14	2112	Môtiers	"Rue de la Gare 14, Môtiers, Switzerland"
42	LANDI Région Neuchâtel SA	Crêt-du-Locle 28	2322	Le Crêt-du-Locle	"Crêt-du-Locle 28, Le Crêt-du-Locle, Switzerland"
43	LANDI ArcJura SA	Chemin des Labours 12	2350	Saignelégier	"Chemin des Labours 12, Saignelégier, Switzerland"
44	LANDI RESO	Neckarsulmstrasse 50	2540	Grenchen	"Neckarsulmstrasse 50, Grenchen, Switzerland"
45	LANDI Seeland AG	Keltenstrasse 47	2564	Bellmund	"Keltenstrasse 47, Bellmund, Switzerland"
46	LANDI ArcJura SA	Grand-Rue 102	2608	Courtelary	"Grand-Rue 102, Courtelary, Switzerland"
47	LANDI Vallée de Tavannes	Route Principale 1	2733	Pontenet	"Route Principale 1, Pontenet, Switzerland"
48	LANDI ArcJura SA	Dos les Terras 3	2744	Belprahon	"Dos les Terras 3, Belprahon, Switzerland"
49	LANDI ArcJura SA	Route de Moutier 111	2800	Delémont	"Route de Moutier 111, Delémont, Switzerland"
50	AGRO Centre et Jardin-Service	Rue Vieux-Moulin 1	2852	Courtételle	"Rue Vieux-Moulin 1, Courtételle, Switzerland"
51	Coopérative agricole Landi Clos-du-Doubs	Route des Rangiers 56	2882	St-Ursanne	"Route des Rangiers 56, St-Ursanne, Switzerland"
52	LANDI ArcJura SA	Pré-Domont 2	2942	Alle	"Pré-Domont 2, Alle, Switzerland"
53	LANDI Wohlensee	Hauptstrasse 19	3033	Wohlen b. Bern	"Hauptstrasse 19, Wohlen b. Bern, Switzerland"
54	LANDI Wohlensee	Säriswilstrasse 13	3043	Uettligen	"Säriswilstrasse 13, Uettligen, Switzerland"
55	LANDI Moossee	Eichenweg 35	3052	Zollikofen	"Eichenweg 35, Zollikofen, Switzerland"
56	LANDI Moossee	Bahnhofstr. 5	3053	Münchenbuchsee	"Bahnhofstr. 5, Münchenbuchsee, Switzerland"
57	LANDI Moossee	Lyssstrasse 1	3054	Schüpfen	"Lyssstrasse 1, Schüpfen, Switzerland"
58	LANDI Bolligen Genossenschaft	Bolligenstrasse 92	3065	Bolligen	"Bolligenstrasse 92, Bolligen, Switzerland"
59	LANDI Vechigen	Bahnhofstrasse 2	3067	Boll	"Bahnhofstrasse 2, Boll, Switzerland"
60	LANDI Aare Genossenschaft	Rubigenstrasse 80	3076	Worb	"Rubigenstrasse 80, Worb, Switzerland"
61	LANDI Thun Genossenschaft	Dorfstrasse 30	3088	Rüeggisberg	"Dorfstrasse 30, Rüeggisberg, Switzerland"
62	LANDI Laden Köniz	Gartenstadtstrasse 7a	3098	Köniz	"Gartenstadtstrasse 7a, Köniz, Switzerland"
63	LANDI Aare Genossenschaft	Seilereistrasse 20	3114	Wichtrach	"Seilereistrasse 20, Wichtrach, Switzerland"
64	LANDI Aare Genossenschaft	Aemmenmattstrasse 4	3123	Belp	"Aemmenmattstrasse 4, Belp, Switzerland"
65	LANDI Thun Genossenschaft	Bahnhofstrasse 45	3127	Mühlethurnen	"Bahnhofstrasse 45, Mühlethurnen, Switzerland"
66	LANDI Laden Niederscherli	Eyboden 8	3145	Niederscherli	"Eyboden 8, Niederscherli, Switzerland"
67	LANDI Laden Schwarzenburg	Milchgässli 7	3150	Schwarzenburg	"Milchgässli 7, Schwarzenburg, Switzerland"
68	LANDI Bern-West	Freiburgstrasse 888	3174	Thörishaus	"Freiburgstrasse 888, Thörishaus, Switzerland"
69	LANDI UWA Ueberstorf Genossenschaft	Bernstrasse 34B	3175	Flamatt	"Bernstrasse 34B, Flamatt, Switzerland"
70	LANDI Bern-West	Laupenstrasse 12	3176	Neuenegg	"Laupenstrasse 12, Neuenegg, Switzerland"
71	LANDI Bern-West	Murtenstrasse 28	3177	Laupen	"Murtenstrasse 28, Laupen, Switzerland"
72	LANDI UWA Ueberstorf Genossenschaft	Flamattstrasse 10	3182	Ueberstorf	"Flamattstrasse 10, Ueberstorf, Switzerland"
73	LANDI Gurmels	Hauptstrasse 120	3212	Gurmels	"Hauptstrasse 120, Gurmels, Switzerland"
74	LANDI Seeland AG	Brüggfeld 1	3216	Ried bei Kerzers	"Brüggfeld 1, Ried bei Kerzers, Switzerland"
75	LANDI Seeland AG	Rämismatte 1	3232	Ins	"Rämismatte 1, Ins, Switzerland"
76	LANDI Messen	Haupstrasse 43	3254	Messen	"Haupstrasse 43, Messen, Switzerland"
77	LANDI Seeland AG	Chräjeninsel 16	3270	Aarberg	"Chräjeninsel 16, Aarberg, Switzerland"
78	LANDI Seeland AG	Alte Freiburgstrasse 33	3280	Murten	"Alte Freiburgstrasse 33, Murten, Switzerland"
79	LANDI Büren a. A. und Umgebung	Schulriederstrasse 3	3293	Dotzigen	"Schulriederstrasse 3, Dotzigen, Switzerland"
80	LANDI Büren a. A. und Umbebung	Güterweg 11	3294	Büren an der Aare	"Güterweg 11, Büren an der Aare, Switzerland"
81	LANDI Büren a. A. und Umbebung	Herrengasse 5	3297	Leuzigen	"Herrengasse 5, Leuzigen, Switzerland"
82	LANDI Moossee	Bernstrasse 62	3303	Jegenstorf	"Bernstrasse 62, Jegenstorf, Switzerland"
83	LANDI Moossee	Oberburgstrasse 1	3326	Krauchthal	"Oberburgstrasse 1, Krauchthal, Switzerland"
84	LANDI Herzogenbuchsee	Byfangstrasse 2	3360	Herzogenbuchsee	"Byfangstrasse 2, Herzogenbuchsee, Switzerland"
85	LANDI KoWy	Sägegasse 1	3400	Burgdorf	"Sägegasse 1, Burgdorf, Switzerland"
86	LANDI Region Aemme	Dicki	3415	Hasle-Rüegsau	"Dicki, Hasle-Rüegsau, Switzerland"
87	LANDI Region Aemme	Dorfstrasse 7	3418	Rüegsbach	"Dorfstrasse 7, Rüegsbach, Switzerland"
88	LANDI KoWY	Dorfstrasse 79	3423	Ersigen	"Dorfstrasse 79, Ersigen, Switzerland"
89	LANDI KoWy	Alchenstorfstrasse 3	3425	Koppigen	"Alchenstorfstrasse 3, Koppigen, Switzerland"
90	LANDI Landshut	Bahnhofstrasse 33	3427	Utzenstorf	"Bahnhofstrasse 33, Utzenstorf, Switzerland"
91	LANDI Region Aemme	Parkettstrasse 29	3432	Lützelflüh	"Parkettstrasse 29, Lützelflüh, Switzerland"
92	LANDI Region Langnau AG	Dorfstrasse 47	3436	Zollbrück	"Dorfstrasse 47, Zollbrück, Switzerland"
93	LANDI Region Aemme	Wylergasse 1	3455	Sumiswald	"Wylergasse 1, Sumiswald, Switzerland"
94	LANDI Region Aemme	Bahnhofstrasse 34	3457	Wasen	"Bahnhofstrasse 34, Wasen, Switzerland"
95	LANDI KoWy	Tannwaldmoosweg 1	3472	Wynigen	"Tannwaldmoosweg 1, Wynigen, Switzerland"
96	LANDI Riedtwil Genossenschaft	Hauptstrasse 43	3475	Riedtwil	"Hauptstrasse 43, Riedtwil, Switzerland"
97	LANDI Aare Genossenschaft	Bahnhofstrasse 17	3506	Grosshöchstetten	"Bahnhofstrasse 17, Grosshöchstetten, Switzerland"
98	LANDI Aare Genossenschaft	Hohle 3	3507	Biglen	"Hohle 3, Biglen, Switzerland"
99	LANDI Aare Genossenschaft	Bahnhofstrasse 17	3532	Zäziwil	"Bahnhofstrasse 17, Zäziwil, Switzerland"
100	Region Langnau AG	Dorfstrasse 73	3534	Signau	"Dorfstrasse 73, Signau, Switzerland"
101	LANDI Röthenbach - Eggiwil	Beisatzgasse 480 A	3537	Eggiwil	"Beisatzgasse 480 A, Eggiwil, Switzerland"
102	LANDI Röthenbach-Eggiwil	Dorf	3538	Röthenbach i. E.	"Dorf, Röthenbach i. E., Switzerland"
103	LANDI Wiggen und Umgebung	Bahnhofstrasse 4	3555	Trubschachen	"Bahnhofstrasse 4, Trubschachen, Switzerland"
104	LANDI Thun Genossenschaft	Glockentalstrasse 50	3612	Steffisburg	"Glockentalstrasse 50, Steffisburg, Switzerland"
105	LANDI Niesen Genossenschaft	Blumensteinstrasse 28	3634	Thierachern	"Blumensteinstrasse 28, Thierachern, Switzerland"
106	LANDI Thun Genossenschaft	Bahnhofstrasse 16	3661	Uetendorf	"Bahnhofstrasse 16, Uetendorf, Switzerland"
107	LANDI Herbligen - Brenzikofen	Stationsstrasse 3	3671	Brenzikofen	"Stationsstrasse 3, Brenzikofen, Switzerland"
108	LANDI Thun Genossenschaft	Dorfstrasse 23	3673	Linden	"Dorfstrasse 23, Linden, Switzerland"
109	LANDI Niesen Genossenschaft	Faulenbachweg 70	3700	Spiez	"Faulenbachweg 70, Spiez, Switzerland"
110	LANDI Reichenbach-Kandertal Genossenschaft	Hauptstrasse 36	3713	Reichenbach i. K.	"Hauptstrasse 36, Reichenbach i. K., Switzerland"
111	LANDI Jungfrau AG	Christoph Kunz-Olympiastrasse 18	3714	Frutigen	"Christoph Kunz-Olympiastrasse 18, Frutigen, Switzerland"
112	LANDI Diemtigtal Genossenschaft	Unterdorfweg 7	3753	Oey	"Unterdorfweg 7, Oey, Switzerland"
113	LANDI Simmental-Saanenland	Simmentalstrasse	3763	Därstetten	"Simmentalstrasse, Därstetten, Switzerland"
114	LANDI Simmental-Saanenland	Schulstrasse 1	3770	Zweisimmen	"Schulstrasse 1, Zweisimmen, Switzerland"
115	LANDI Simmental-Saanenland	Thunstrasse 29H	3770	Zweisimmen	"Thunstrasse 29H, Zweisimmen, Switzerland"
116	LANDI Simmental-Saanenland	Lenkstrasse 74	3775	Lenk im Simmental	"Lenkstrasse 74, Lenk im Simmental, Switzerland"
117	LANDI Simmental-Saanenland	Güterstrasse 10	3780	Gstaad	"Güterstrasse 10, Gstaad, Switzerland"
118	LANDI Simmental-Saanenland	Mattenstrasse 120	3783	Grund bei Gstaad	"Mattenstrasse 120, Grund bei Gstaad, Switzerland"
119	LANDI Jungfrau AG	Untere Bönigstrasse 50	3800	Interlaken	"Untere Bönigstrasse 50, Interlaken, Switzerland"
120	LANDI Grindelwald Genossenschaft	Wärgitalstrasse 4	3818	Grindelwald	"Wärgitalstrasse 4, Grindelwald, Switzerland"
121	LANDI Jungfrau AG	Stägmattgasse 1	3855	Brienz	"Stägmattgasse 1, Brienz, Switzerland"
122	LANDI Jungfrau AG	Liechtenenstrasse 18	3860	Meiringen	"Liechtenenstrasse 18, Meiringen, Switzerland"
123	LANDI Oberwallis AG	Überlandstrasse 70	3902	Brig-Glis	"Überlandstrasse 70, Brig-Glis, Switzerland"
124	LANDI Reba AG	Nordring 2	4147	Aesch BL	"Nordring 2, Aesch BL, Switzerland"
125	LANDI Reba AG	Güterstrasse 33	4242	Laufen	"Güterstrasse 33, Laufen, Switzerland"
126	LANDI FRILA	Untere Rütenenstrasse 1	4310	Rheinfelden	"Untere Rütenenstrasse 1, Rheinfelden, Switzerland"
127	Milch- und Landwirtschaftliche Genossenschaft Liestal	Zeughausplatz 16-20	4410	Liestal	"Zeughausplatz 16-20, Liestal, Switzerland"
128	LANDI Reba AG	Grüngenstrasse 3	4416	Bubendorf	"Grüngenstrasse 3, Bubendorf, Switzerland"
129	LANDI Oberdorf	Hintere Gasse 6	4436	Oberdorf BL	"Hintere Gasse 6, Oberdorf BL, Switzerland"
130	LANDI Tenniken	Hofmattweg 16	4456	Tenniken	"Hofmattweg 16, Tenniken, Switzerland"
131	LANDI Reba AG	Sissacherstrasse 40	4460	Gelterkinden	"Sissacherstrasse 40, Gelterkinden, Switzerland"
132	LANDI Subingen	Gewerbestrasse 1	4553	Subingen	"Gewerbestrasse 1, Subingen, Switzerland"
133	LANDI Bucheggberg	beim Bahnhof	4573	Lohn-Ammannsegg	"beim Bahnhof, Lohn-Ammannsegg, Switzerland"
134	Landi BippGäuThal AG	Dorfstrasse 5	4612	Wangen bei Olten	"Dorfstrasse 5, Wangen bei Olten, Switzerland"
135	LANDI Fulenbach	Dorfstrasse 23	4629	Fulenbach	"Dorfstrasse 23, Fulenbach, Switzerland"
136	LANDI Aarau-West AG	Burmattstrasse 1	4652	Winznau	"Burmattstrasse 1, Winznau, Switzerland"
137	LANDI Aarau-West AG	Schachenstrasse 10	4658	Däniken	"Schachenstrasse 10, Däniken, Switzerland"
138	LANDI BippGäuThal AG	Äussere Klus 39	4702	Oensingen	"Äussere Klus 39, Oensingen, Switzerland"
139	LANDI Zofingen	Kornweg 3	4800	Zofingen	"Kornweg 3, Zofingen, Switzerland"
140	LANDI Melchnau-Bützberg	Dorfstrasse 34	4917	Melchnau	"Dorfstrasse 34, Melchnau, Switzerland"
141	LANDI Melchnau Bützberg	Zürichstrasse 32	4922	Bützberg	"Zürichstrasse 32, Bützberg, Switzerland"
142	LANDI Eriswil Genossenschaft	Bahnhofsplatz 6	4952	Eriswil	"Bahnhofsplatz 6, Eriswil, Switzerland"
143	LANDI Region Huttwil AG	Bernstrasse 62	4953	Schwarzenbach	"Bernstrasse 62, Schwarzenbach, Switzerland"
144	LANDI Oberes Fricktal	Oeligasse 94	5063	Wölflinswil	"Oeligasse 94, Wölflinswil, Switzerland"
145	LANDI FRILA	Gerenweg 4	5073	Gipf-Oberfrick	"Gerenweg 4, Gipf-Oberfrick, Switzerland"
146	LANDI FRILA	Laufenburgerstrasse 6	5074	Eiken	"Laufenburgerstrasse 6, Eiken, Switzerland"
147	LANDI Klingnau	Zelgli 6	5313	Klingnau	"Zelgli 6, Klingnau, Switzerland"
148	LANDI Wasserschloss	Hornblick 3	5412	Gebenstorf	"Hornblick 3, Gebenstorf, Switzerland"
149	LANDI Schneisingen	Zimmereiweg 2	5425	Schneisingen	"Zimmereiweg 2, Schneisingen, Switzerland"
150	LANDI Furt- und Limmattal Genossenschaft	Landstrasse 40	5436	Würenlos	"Landstrasse 40, Würenlos, Switzerland"
151	LANDI Freiamt	Bergstrasse 6	5452	Oberrohrdorf	"Bergstrasse 6, Oberrohrdorf, Switzerland"
152	LANDI Lenzburg	Sägestrasse 10	5600	Lenzburg	"Sägestrasse 10, Lenzburg, Switzerland"
153	LANDI Freiamt	Luzernstrasse 65	5630	Muri AG	"Luzernstrasse 65, Muri AG, Switzerland"
154	LANDI Sins	Bahnhofstrasse 32	5643	Sins	"Bahnhofstrasse 32, Sins, Switzerland"
155	LANDI Unteres Seetal	Dürrenäscherweg 413	5705	Hallwil	"Dürrenäscherweg 413, Hallwil, Switzerland"
156	LANDI Hallwilersee	Poststrasse 18	5707	Seengen	"Poststrasse 18, Seengen, Switzerland"
157	LANDI Unteres Seetal	Kirchenfeldstrasse 10	5722	Gränichen	"Kirchenfeldstrasse 10, Gränichen, Switzerland"
158	LANDI Hallwilersee	Mattenstrasse 10	5734	Reinach AG	"Mattenstrasse 10, Reinach AG, Switzerland"
159	LANDI Aarau-West AG	Hardfeld 1	5742	Kölliken	"Hardfeld 1, Kölliken, Switzerland"
160	LANDI Sursee	Guglern 34	6018	Buttisholz	"Guglern 34, Buttisholz, Switzerland"
161	LANDI Sempach-Emmen	Bahnhofstrasse 15	6020	Emmenbrücke	"Bahnhofstrasse 15, Emmenbrücke, Switzerland"
162	LANDI Sempach-Emmen	Stationsstrasse 82	6023	Rothenburg	"Stationsstrasse 82, Rothenburg, Switzerland"
163	LANDI Buchrain Genossenschaft	Schiltwaldstrasse 2	6033	Buchrain	"Schiltwaldstrasse 2, Buchrain, Switzerland"
164	LANDI Pilatus AG	Technikumstrasse 1	6048	Horw	"Technikumstrasse 1, Horw, Switzerland"
165	LANDI Unterwalden AG	Kernserstrasse 1	6060	Sarnen	"Kernserstrasse 1, Sarnen, Switzerland"
166	LANDI Pilatus AG	Mettlenmatte 1	6102	Malters	"Mettlenmatte 1, Malters, Switzerland"
167	LANDI Pilatus AG	Entlebucherstrasse 81	6110	Wolhusen	"Entlebucherstrasse 81, Wolhusen, Switzerland"
168	LANDI Luzern West	Ettiswilerstrasse 30	6130	Willisau	"Ettiswilerstrasse 30, Willisau, Switzerland"
169	LANDI Luzern West	Bahnhofstrasse 3	6144	Zell	"Bahnhofstrasse 3, Zell, Switzerland"
170	LANDI Wiggen und Umgebung Genossenschaft	Blumattstrasse 1	6162	Entlebuch	"Blumattstrasse 1, Entlebuch, Switzerland"
171	LANDI Schüpfheim-Flühli	Bahnhofstrasse 15	6170	Schüpfheim	"Bahnhofstrasse 15, Schüpfheim, Switzerland"
172	LANDI Wiggen und Umgebung Genossenschaft	Bahnhofstrasse 8	6182	Escholzmatt	"Bahnhofstrasse 8, Escholzmatt, Switzerland"
173	LANDI Wiggen und Umgebung	Unterwiggen 2	6192	Wiggen	"Unterwiggen 2, Wiggen, Switzerland"
174	LANDI Wiggen und Umgebung	Fischbach	6197	Schangnau	"Fischbach, Schangnau, Switzerland"
175	LANDI Sempach-Emmen	Bahnhofstrasse 27	6203	Sempach Station	"Bahnhofstrasse 27, Sempach Station, Switzerland"
176	LANDI Nottwil - Buttisholz	Kantonsstrasse 14	6207	Nottwil	"Kantonsstrasse 14, Nottwil, Switzerland"
177	LANDI-Markt AG Sursee	Schellenrain 11	6208	Oberkirch	"Schellenrain 11, Oberkirch, Switzerland"
178	LANDI Beromünster	Aargauerstrasse 11	6215	Beromünster	"Aargauerstrasse 11, Beromünster, Switzerland"
179	LANDI Triengen	Kantonsstrasse 4	6234	Triengen	"Kantonsstrasse 4, Triengen, Switzerland"
180	LANDI Luzern West	Schürmatt 3	6247	Schötz	"Schürmatt 3, Schötz, Switzerland"
181	LANDI Luzern West	Dörflimatte 1	6260	Reiden	"Dörflimatte 1, Reiden, Switzerland"
182	LANDI Oberseetal	Huwilstrasse 7	6280	Hochdorf	"Huwilstrasse 7, Hochdorf, Switzerland"
183	LANDI Oberseetal	Mettmenstrasse 5	6288	Schongau	"Mettmenstrasse 5, Schongau, Switzerland"
184	LANDI Zugerland	Oberallmendstrasse 24	6300	Zug	"Oberallmendstrasse 24, Zug, Switzerland"
185	LANDI Zugerland	Gewerbestrasse 1	6314	Unterägeri	"Gewerbestrasse 1, Unterägeri, Switzerland"
186	LANDI Hünenberg	Chamerstrasse 46	6331	Hünenberg	"Chamerstrasse 46, Hünenberg, Switzerland"
187	LANDI Zugerland	Poststrasse 3	6343	Rotkreuz	"Poststrasse 3, Rotkreuz, Switzerland"
188	LANDI Unterwalden AG	Unter Sagi 2	6362	Stansstad	"Unter Sagi 2, Stansstad, Switzerland"
189	LANDI Küssnacht AG	Zugerstrasse 4	6403	Küssnacht am Rigi	"Zugerstrasse 4, Küssnacht am Rigi, Switzerland"
190	LANDI Schwyz	Steinbislin 9	6423	Seewen SZ	"Steinbislin 9, Seewen SZ, Switzerland"
191	LANDI Uri AG	Umfahrungsstrasse 24	6467	Schattdorf	"Umfahrungsstrasse 24, Schattdorf, Switzerland"
192	LANDI Graubünden AG	Via Isla 55	7151	Schluein	"Via Isla 55, Schluein, Switzerland"
193	LANDI Graubünden AG	Löserstrasse 11	7302	Landquart	"Löserstrasse 11, Landquart, Switzerland"
194	LANDI Graubünden AG	Provisorium an der Werkallee 1	7430	Thusis	"Provisorium an der Werkallee 1, Thusis, Switzerland"
195	LANDI Furt- und Limmattal Genossenschaft	Breitestrasse 15	8106	Adlikon	"Breitestrasse 15, Adlikon, Switzerland"
196	LANDI Maur Genossenschaft	Rellikonstrasse 3	8124	Maur	"Rellikonstrasse 3, Maur, Switzerland"
197	LANDI Schleinikon	Dorfstrasse 18	8165	Schleinikon	"Dorfstrasse 18, Schleinikon, Switzerland"
198	LANDI Züri Unterland	Wehntalerstrasse 38	8181	Höri	"Wehntalerstrasse 38, Höri, Switzerland"
199	LANDI Surb Genossenschaft	Kaiserstuhlerstrasse 44	8187	Weiach	"Kaiserstuhlerstrasse 44, Weiach, Switzerland"
200	LANDI Züri Unterland	Schaffhauserstrasse 41	8193	Eglisau	"Schaffhauserstrasse 41, Eglisau, Switzerland"
201	GVS Landi AG	Gennersbrunnerstrasse 65	8207	Schaffhausen	"Gennersbrunnerstrasse 65, Schaffhausen, Switzerland"
202	LANDI Hallau / Oberhallau	Grüntalstrasse 7	8215	Hallau	"Grüntalstrasse 7, Hallau, Switzerland"
203	LANDI Wilchingen	Hauptstrasse 85	8217	Wilchingen	"Hauptstrasse 85, Wilchingen, Switzerland"
204	GVS Landi AG	Werkstrasse 15	8222	Beringen	"Werkstrasse 15, Beringen, Switzerland"
205	LANDI Schleitheim Genossenschaft	Randenstrasse	8226	Schleitheim	"Randenstrasse, Schleitheim, Switzerland"
206	LANDI Thayngen	Blumenweg 8	8240	Thayngen	"Blumenweg 8, Thayngen, Switzerland"
207	LANDI Markt Diessenhofen	Basadingerstrasse 50a	8253	Diessenhofen	"Basadingerstrasse 50a, Diessenhofen, Switzerland"
208	LANDI Untersee und Rhy	Hauptstrasse 15	8264	Eschenz	"Hauptstrasse 15, Eschenz, Switzerland"
209	LANDI Mittelthurgau	Bahnhofstrasse 10	8272	Ermatingen	"Bahnhofstrasse 10, Ermatingen, Switzerland"
210	LANDI Markt AG Kreuzlingen	Tägerwilerstrasse 6	8280	Kreuzlingen	"Tägerwilerstrasse 6, Kreuzlingen, Switzerland"
211	LG Kloten / Landwirtschaftliche Genossenschaft Kloten	Dorfstrasse 59	8302	Kloten	"Dorfstrasse 59, Kloten, Switzerland"
212	LANDI Zola AG	Usterstrasse 27	8308	Illnau	"Usterstrasse 27, Illnau, Switzerland"
213	LANDI Züri Unterland	Eigentalstrasse 51	8309	Nürensdorf	"Eigentalstrasse 51, Nürensdorf, Switzerland"
214	LANDI Zola AG	Kempttalstrasse 90	8330	Pfäffikon ZH	"Kempttalstrasse 90, Pfäffikon ZH, Switzerland"
215	LANDI Bachtel Genossenschaft	Adetswilerstrasse 16a	8344	Bäretswil	"Adetswilerstrasse 16a, Bäretswil, Switzerland"
216	LANDI Eulachtal Genossenschaft	St. Gallerstrasse 6	8352	Elsau	"St. Gallerstrasse 6, Elsau, Switzerland"
217	LANDI Tannzapfenland Genossenschaft	Tanneggerstrasse 4	8374	Dussnang	"Tanneggerstrasse 4, Dussnang, Switzerland"
218	LANDI Neftenbach AG	Zürichstrasse 44	8413	Neftenbach	"Zürichstrasse 44, Neftenbach, Switzerland"
219	LANDI Züri Unterland	Lagerhausweg 4	8424	Embrach	"Lagerhausweg 4, Embrach, Switzerland"
220	LANDI Buchberg-Rüdlingen	Winkelweg 4	8454	Buchberg	"Winkelweg 4, Buchberg, Switzerland"
221	LANDI Weinland Genossenschaft	Güeterstrass 3	8460	Marthalen	"Güeterstrass 3, Marthalen, Switzerland"
222	LANDI Dägerlen u. Umgebung	Dorfstrasse 12	8471	Rutschwil-Dägerlen	"Dorfstrasse 12, Rutschwil-Dägerlen, Switzerland"
223	LANDI Stammertal Genossenschaft	Amtacker 2	8476	Unterstammheim	"Amtacker 2, Unterstammheim, Switzerland"
224	LANDI Wisligzäller Genossenschaft	Dorfstrasse 9	8484	Weisslingen	"Dorfstrasse 9, Weisslingen, Switzerland"
225	LANDI Wila-Turbenthal	St. Gallerstrasse 18	8488	Turbenthal	"St. Gallerstrasse 18, Turbenthal, Switzerland"
226	LANDI Seerücken Genossenschaft	Hauptstrasse 21	8507	Hörhausen	"Hauptstrasse 21, Hörhausen, Switzerland"
227	LANDI Thurland Genossenschaft	Schaffhauserstrasse 5	8524	Uesslingen	"Schaffhauserstrasse 5, Uesslingen, Switzerland"
228	LANDI Hüttwilen und Umgebung	im Winkel 4	8536	Hüttwilen	"im Winkel 4, Hüttwilen, Switzerland"
229	LANDI Eulachtal Genossenschaft	Spycherweg 5	8542	Wiesendangen	"Spycherweg 5, Wiesendangen, Switzerland"
230	LANDI Weinland Genossenschaft	Grüterstrasse 2	8545	Rickenbach	"Grüterstrasse 2, Rickenbach, Switzerland"
231	LANDI Thurland Genossenschaft	Tegelbachstrasse 4	8546	Islikon	"Tegelbachstrasse 4, Islikon, Switzerland"
232	LANDI Thurland Genossenschaft	Hauptstrasse 36	8552	Felben	"Hauptstrasse 36, Felben, Switzerland"
233	LANDI Mittelthurgau	Dorfstrasse 18	8560	Märstetten	"Dorfstrasse 18, Märstetten, Switzerland"
234	LANDI Mittelthurgau	Weiherhüslistrasse 2	8564	Sonterswil	"Weiherhüslistrasse 2, Sonterswil, Switzerland"
235	LANDI Mittelthurgau	Oberfeldenstrasse 1	8570	Weinfelden	"Oberfeldenstrasse 1, Weinfelden, Switzerland"
236	LANDI Berg Genossenschaft	Leberenstrasse 1	8572	Berg TG	"Leberenstrasse 1, Berg TG, Switzerland"
237	LANDI Kemmental Genossenschaft	Alterswilerstrasse 6	8573	Siegershausen	"Alterswilerstrasse 6, Siegershausen, Switzerland"
238	LANDI Markt Aachtal AG	Schrofenstrasse 20	8580	Amriswil	"Schrofenstrasse 20, Amriswil, Switzerland"
239	LANDI Mittelthurgau	Hauptstrasse 1	8584	Leimbach	"Hauptstrasse 1, Leimbach, Switzerland"
240	LANDI Markt Altnau	Wuhrwiesenstrasse 7	8595	Altnau	"Wuhrwiesenstrasse 7, Altnau, Switzerland"
241	LANDI Zola AG	Tolackerstrasse 30	8604	Hegnau-Volketswil	"Tolackerstrasse 30, Hegnau-Volketswil, Switzerland"
242	LANDI Zola AG	Mettlenbachstrasse 11	8617	Mönchaltorf	"Mettlenbachstrasse 11, Mönchaltorf, Switzerland"
243	LANDI Wetzikon-Seegräben Genossenschaft	Motorenstrasse 87	8620	Wetzikon	"Motorenstrasse 87, Wetzikon, Switzerland"
244	LANDI Hombrechtikon Genossenschaft	Rütistrasse 9	8634	Hombrechtikon	"Rütistrasse 9, Hombrechtikon, Switzerland"
245	LANDI Bachtel Genossenschaft	Kreuzstrasse 10	8635	Dürnten	"Kreuzstrasse 10, Dürnten, Switzerland"
246	LANDI Bachtel Genossenschaft	Bahnhofstrasse 42	8636	Wald	"Bahnhofstrasse 42, Wald, Switzerland"
247	LANDI Goldingen	Laupenstrasse 2	8638	Goldingen	"Laupenstrasse 2, Goldingen, Switzerland"
248	LANDI mittlerer Zürisee Genossenschaft	Gruebstrasse 93	8706	Meilen	"Gruebstrasse 93, Meilen, Switzerland"
249	LANDI Stäfa-Männedorf	Laubisrütistrasse 40	8712	Stäfa	"Laubisrütistrasse 40, Stäfa, Switzerland"
250	LANDI Linth Genossenschaft	Landistrasse 2	8718	Schänis	"Landistrasse 2, Schänis, Switzerland"
251	LANDI Linth Genossenschaft	Schulhausstrasse 21	8722	Kaltbrunn	"Schulhausstrasse 21, Kaltbrunn, Switzerland"
252	LANDI See AG	Tunnelstrasse 2	8732	Neuhaus	"Tunnelstrasse 2, Neuhaus, Switzerland"
253	Landi Glarnerland AG	Hauptstrasse 95	8756	Mitlödi	"Hauptstrasse 95, Mitlödi, Switzerland"
254	LANDI Zimmerberg	Industriestrasse 15	8820	Wädenswil	"Industriestrasse 15, Wädenswil, Switzerland"
255	LANDI Einsiedeln AG	Alpstrasse 4	8840	Einsiedeln	"Alpstrasse 4, Einsiedeln, Switzerland"
256	BV Landi March Genossenschaft	Bahnhofstrasse 65	8854	Siebnen	"Bahnhofstrasse 65, Siebnen, Switzerland"
257	LANDI Sarganserland AG	Lochrietstrasse 22	8890	Flums	"Lochrietstrasse 22, Flums, Switzerland"
258	LANDI Bonstetten	Burgwies 1-3	8906	Bonstetten	"Burgwies 1-3, Bonstetten, Switzerland"
259	Landimärt	Muristrasse 2	8912	Obfelden	"Muristrasse 2, Obfelden, Switzerland"
260	LANDI Albis	Untere Bahnhofstrasse 20	8932	Mettmenstetten	"Untere Bahnhofstrasse 20, Mettmenstetten, Switzerland"
261	LANDI Furt- und Limmattal Genossenschaft	Schöneggstrasse 47	8953	Dietikon	"Schöneggstrasse 47, Dietikon, Switzerland"
262	LANDI Freiamt	Allmend 5	8967	Widen	"Allmend 5, Widen, Switzerland"
263	LANDI Appenzell AG	Mettlenstrasse 10	9050	Appenzell	"Mettlenstrasse 10, Appenzell, Switzerland"
264	LANDI Säntis AG	Landhausstrasse 6	9053	Teufen	"Landhausstrasse 6, Teufen, Switzerland"
265	LANDI Säntis AG	St. Gallerstr. 25	9100	Herisau	"St. Gallerstr. 25, Herisau, Switzerland"
266	LANDI Säntis AG	Hauptstrasse 10	9105	Schönengrund	"Hauptstrasse 10, Schönengrund, Switzerland"
267	LANDI Säntis AG	Herisauerstrasse 28	9107	Urnäsch	"Herisauerstrasse 28, Urnäsch, Switzerland"
268	LANDI Fürstenland AG	Bahnhofstrasse 22	9200	Gossau	"Bahnhofstrasse 22, Gossau, Switzerland"
269	LANDI Mittelthurgau	Käsereistr. 2	9217	Neukirch an der Thur	"Käsereistr. 2, Neukirch an der Thur, Switzerland"
270	LANDI Oberthurgau AG	Ibergstrasse 26	9220	Bischofszell	"Ibergstrasse 26, Bischofszell, Switzerland"
271	LANDI Thur AG	Niederuzwilerstrasse	9240	Niederglatt SG	"Niederuzwilerstrasse, Niederglatt SG, Switzerland"
272	LANDI Oberbüren AG	Sandackerstrasse 24	9245	Oberbüren	"Sandackerstrasse 24, Oberbüren, Switzerland"
273	LANDI Fürstenland AG	Erlackerstrasse 14	9300	Wittenbach	"Erlackerstrasse 14, Wittenbach, Switzerland"
274	LANDI Oberthurgau AG	Im Pünt 2 / Steineloh	9320	Frasnacht	"Im Pünt 2 / Steineloh, Frasnacht, Switzerland"
275	LANDI Goldach-Mörschwil	St.Gallerstrasse 17	9402	Mörschwil	"St.Gallerstrasse 17, Mörschwil, Switzerland"
276	LANDI Goldach-Mörschwil	Sulzstrasse 21	9403	Goldach	"Sulzstrasse 21, Goldach, Switzerland"
277	LANDI St. Margrethen AG	Industriestrasse 43	9430	St. Margrethen	"Industriestrasse 43, St. Margrethen, Switzerland"
278	LANDI Oberrheintal Genossenschaft	Oberrieterstrasse 87	9450	Altstätten	"Oberrieterstrasse 87, Altstätten, Switzerland"
279	LANDI Buchs AG	Mühleäulistrasse 1	9470	Buchs	"Mühleäulistrasse 1, Buchs, Switzerland"
280	LANDI Wartau Genossenschaft	Fährhüttenstr. 9	9477	Trübbach	"Fährhüttenstr. 9, Trübbach, Switzerland"
281	LANDI Thur AG	Churfirstenstrasse 3	9500	Wil	"Churfirstenstrasse 3, Wil, Switzerland"
282	LANDI Thur AG	Henauerstrasse	9524	Zuzwil	"Henauerstrasse, Zuzwil, Switzerland"
283	LANDI Kirchberg	Hausenstrasse 4	9533	Kirchberg SG	"Hausenstrasse 4, Kirchberg SG, Switzerland"
284	LANDI Matzingen Genossenschaft	St. Gallerstrasse 50	9548	Matzingen	"St. Gallerstrasse 50, Matzingen, Switzerland"
285	LANDI Oberthurgau AG	Hauptstrasse 30	9562	Märwil	"Hauptstrasse 30, Märwil, Switzerland"
286	LANDI Bütschwil AG	Adlerweg 31	9606	Bütschwil	"Adlerweg 31, Bütschwil, Switzerland"
287	LANDI Bütschwil AG	Bütschwilerstrasse 1	9607	Mosnang	"Bütschwilerstrasse 1, Mosnang, Switzerland"
288	LANDI Ganterschwil-Lütisburg	Toggenburgerstrasse 5	9608	Ganterschwil	"Toggenburgerstrasse 5, Ganterschwil, Switzerland"
289	LANDI Wattwil AG	Floozstrasse 7	9630	Wattwil	"Floozstrasse 7, Wattwil, Switzerland"
290	LANDI Nesslau Genossenschaft	Toggenburgerstrasse 40	9652	Neu St. Johann	"Toggenburgerstrasse 40, Neu St. Johann, Switzerland"